[{"OBJECT_NAME":"EUTELSAT 65 WEST A","OBJECT_ID":"2016-014A","EPOCH":"2026-04-25T20:49:14.769984","MEAN_MOTION":1.0027305,"ECCENTRICITY":0.0002225,"INCLINATION":0.0583,"RA_OF_ASC_NODE":28.693,"ARG_OF_PERICENTER":355.5641,"MEAN_ANOMALY":76.7323,"EPHEMERIS_TYPE":0,"CLASSIFICATION_TYPE":"U","NORAD_CAT_ID":41382,"ELEMENT_SET_NO":999,"REV_AT_EPOCH":3700,"BSTAR":0,"MEAN_MOTION_DOT":-2.9e-6,"MEAN_MOTION_DDOT":0},{"OBJECT_NAME":"EUTELSAT 117 WEST B","OBJECT_ID":"2016-038B","EPOCH":"2026-04-25T16:28:37.616736","MEAN_MOTION":1.00271513,"ECCENTRICITY":2.1e-6,"INCLINATION":0.0104,"RA_OF_ASC_NODE":97.9928,"ARG_OF_PERICENTER":322.0419,"MEAN_ANOMALY":283.8316,"EPHEMERIS_TYPE":0,"CLASSIFICATION_TYPE":"U","NORAD_CAT_ID":41589,"ELEMENT_SET_NO":999,"REV_AT_EPOCH":3613,"BSTAR":0,"MEAN_MOTION_DOT":-2.6e-7,"MEAN_MOTION_DDOT":0},{"OBJECT_NAME":"EUTELSAT 172B","OBJECT_ID":"2017-029B","EPOCH":"2026-04-25T14:25:39.340128","MEAN_MOTION":1.00270965,"ECCENTRICITY":1.31e-5,"INCLINATION":0.0163,"RA_OF_ASC_NODE":177.5553,"ARG_OF_PERICENTER":69.2201,"MEAN_ANOMALY":355.2391,"EPHEMERIS_TYPE":0,"CLASSIFICATION_TYPE":"U","NORAD_CAT_ID":42741,"ELEMENT_SET_NO":999,"REV_AT_EPOCH":3321,"BSTAR":0,"MEAN_MOTION_DOT":-2.0e-7,"MEAN_MOTION_DDOT":0},{"OBJECT_NAME":"EUTELSAT 7C","OBJECT_ID":"2019-034B","EPOCH":"2026-04-25T05:05:10.533408","MEAN_MOTION":1.00270946,"ECCENTRICITY":0.000325,"INCLINATION":0.0745,"RA_OF_ASC_NODE":180.9633,"ARG_OF_PERICENTER":194.8636,"MEAN_ANOMALY":280.6966,"EPHEMERIS_TYPE":0,"CLASSIFICATION_TYPE":"U","NORAD_CAT_ID":44334,"ELEMENT_SET_NO":999,"REV_AT_EPOCH":630,"BSTAR":0,"MEAN_MOTION_DOT":3.4e-7,"MEAN_MOTION_DDOT":0},{"OBJECT_NAME":"EUTELSAT 5 WEST B","OBJECT_ID":"2019-067A","EPOCH":"2026-04-25T20:16:38.659296","MEAN_MOTION":1.00271253,"ECCENTRICITY":0.000314,"INCLINATION":0.0688,"RA_OF_ASC_NODE":8.4434,"ARG_OF_PERICENTER":25.583,"MEAN_ANOMALY":118.9839,"EPHEMERIS_TYPE":0,"CLASSIFICATION_TYPE":"U","NORAD_CAT_ID":44624,"ELEMENT_SET_NO":999,"REV_AT_EPOCH":2391,"BSTAR":0,"MEAN_MOTION_DOT":-5.6e-7,"MEAN_MOTION_DDOT":0},{"OBJECT_NAME":"EUTELSAT KONNECT","OBJECT_ID":"2020-005B","EPOCH":"2026-04-25T05:05:18.019968","MEAN_MOTION":1.00270536,"ECCENTRICITY":0.0002048,"INCLINATION":0.0706,"RA_OF_ASC_NODE":89.5744,"ARG_OF_PERICENTER":205.8484,"MEAN_ANOMALY":1.3404,"EPHEMERIS_TYPE":0,"CLASSIFICATION_TYPE":"U","NORAD_CAT_ID":45027,"ELEMENT_SET_NO":999,"REV_AT_EPOCH":2380,"BSTAR":0,"MEAN_MOTION_DOT":3.5e-7,"MEAN_MOTION_DDOT":0},{"OBJECT_NAME":"EUTELSAT QUANTUM","OBJECT_ID":"2021-069B","EPOCH":"2026-04-25T18:58:17.960160","MEAN_MOTION":1.00273035,"ECCENTRICITY":0.0002363,"INCLINATION":0.0247,"RA_OF_ASC_NODE":19.214,"ARG_OF_PERICENTER":12.0715,"MEAN_ANOMALY":154.7765,"EPHEMERIS_TYPE":0,"CLASSIFICATION_TYPE":"U","NORAD_CAT_ID":49056,"ELEMENT_SET_NO":999,"REV_AT_EPOCH":1740,"BSTAR":0,"MEAN_MOTION_DOT":1.12e-6,"MEAN_MOTION_DDOT":0},{"OBJECT_NAME":"EUTELSAT KONNECT VHTS","OBJECT_ID":"2022-110A","EPOCH":"2026-04-25T20:28:01.855200","MEAN_MOTION":1.00270423,"ECCENTRICITY":0.0002865,"INCLINATION":0.0626,"RA_OF_ASC_NODE":92.5567,"ARG_OF_PERICENTER":271.2596,"MEAN_ANOMALY":159.7494,"EPHEMERIS_TYPE":0,"CLASSIFICATION_TYPE":"U","NORAD_CAT_ID":53765,"ELEMENT_SET_NO":999,"REV_AT_EPOCH":631,"BSTAR":0,"MEAN_MOTION_DOT":3.0e-8,"MEAN_MOTION_DDOT":0},{"OBJECT_NAME":"EUTELSAT HOTBIRD 13F","OBJECT_ID":"2022-134A","EPOCH":"2026-04-25T13:40:22.011744","MEAN_MOTION":1.00271935,"ECCENTRICITY":0.0001951,"INCLINATION":0.0494,"RA_OF_ASC_NODE":288.5578,"ARG_OF_PERICENTER":67.6195,"MEAN_ANOMALY":75.4991,"EPHEMERIS_TYPE":0,"CLASSIFICATION_TYPE":"U","NORAD_CAT_ID":54048,"ELEMENT_SET_NO":999,"REV_AT_EPOCH":1284,"BSTAR":0,"MEAN_MOTION_DOT":7.3e-7,"MEAN_MOTION_DDOT":0},{"OBJECT_NAME":"EUTELSAT HOTBIRD 13G","OBJECT_ID":"2022-146A","EPOCH":"2026-04-24T18:50:56.322240","MEAN_MOTION":1.0027211,"ECCENTRICITY":0.00020193,"INCLINATION":0.037,"RA_OF_ASC_NODE":232.3068,"ARG_OF_PERICENTER":313.7745,"MEAN_ANOMALY":322.4605,"EPHEMERIS_TYPE":0,"CLASSIFICATION_TYPE":"U","NORAD_CAT_ID":54225,"ELEMENT_SET_NO":999,"REV_AT_EPOCH":693,"BSTAR":0,"MEAN_MOTION_DOT":7.3e-7,"MEAN_MOTION_DDOT":0},{"OBJECT_NAME":"EUTELSAT 10B","OBJECT_ID":"2022-157A","EPOCH":"2026-04-24T17:07:20.131680","MEAN_MOTION":1.0027193,"ECCENTRICITY":7.727e-5,"INCLINATION":0.0617,"RA_OF_ASC_NODE":90.9525,"ARG_OF_PERICENTER":9.4867,"MEAN_ANOMALY":19.1199,"EPHEMERIS_TYPE":0,"CLASSIFICATION_TYPE":"U","NORAD_CAT_ID":54259,"ELEMENT_SET_NO":999,"REV_AT_EPOCH":1249,"BSTAR":0,"MEAN_MOTION_DOT":5.4e-7,"MEAN_MOTION_DDOT":0},{"OBJECT_NAME":"EUTELSAT 36D","OBJECT_ID":"2024-059A","EPOCH":"2026-04-24T15:32:03.345216","MEAN_MOTION":1.00271786,"ECCENTRICITY":1.988e-5,"INCLINATION":0.0165,"RA_OF_ASC_NODE":240.1665,"ARG_OF_PERICENTER":56.5772,"MEAN_ANOMALY":184.7886,"EPHEMERIS_TYPE":0,"CLASSIFICATION_TYPE":"U","NORAD_CAT_ID":59346,"ELEMENT_SET_NO":999,"REV_AT_EPOCH":761,"BSTAR":0,"MEAN_MOTION_DOT":1.41e-6,"MEAN_MOTION_DDOT":0}]
